{
    "links": {
        "self": "http://www.neowsapp.com/rest/v1/neo/3790057?api_key=iIulBulltgU6a56xZRHN4H3l9WmuAYTsLGpBGhQ2"
    },
    "id": "3790057",
    "neo_reference_id": "3790057",
    "name": "(2017 WL28)",
    "designation": "2017 WL28",
    "nasa_jpl_url": "http://ssd.jpl.nasa.gov/sbdb.cgi?sstr=3790057",
    "absolute_magnitude_h": 27.6,
    "estimated_diameter": {
        "kilometers": {
            "estimated_diameter_min": 0.0080270317,
            "estimated_diameter_max": 0.0179489885
        },
        "meters": {
            "estimated_diameter_min": 8.0270316728,
            "estimated_diameter_max": 17.948988478
        },
        "miles": {
            "estimated_diameter_min": 0.0049877647,
            "estimated_diameter_max": 0.0111529809
        },
        "feet": {
            "estimated_diameter_min": 26.3354065935,
            "estimated_diameter_max": 58.8877593581
        }
    },
    "is_potentially_hazardous_asteroid": false,
    "close_approach_data": [
        {
            "close_approach_date": "2006-01-18",
            "close_approach_date_full": "2006-Jan-18 16:12",
            "epoch_date_close_approach": 1137600720000,
            "relative_velocity": {
                "kilometers_per_second": "19.8910752374",
                "kilometers_per_hour": "71607.870854523",
                "miles_per_hour": "44494.3461984674"
            },
            "miss_distance": {
                "astronomical": "0.3591738121",
                "lunar": "139.7186129069",
                "kilometers": "53731637.249940227",
                "miles": "33387291.1978480526"
            },
            "orbiting_body": "Earth"
        },
        {
            "close_approach_date": "2010-01-01",
            "close_approach_date_full": "2010-Jan-01 15:53",
            "epoch_date_close_approach": 1262361180000,
            "relative_velocity": {
                "kilometers_per_second": "12.8247616654",
                "kilometers_per_hour": "46169.1419954767",
                "miles_per_hour": "28687.7093693561"
            },
            "miss_distance": {
                "astronomical": "0.1514628582",
                "lunar": "58.9190518398",
                "kilometers": "22658520.970832034",
                "miles": "14079352.0630447092"
            },
            "orbiting_body": "Earth"
        },
        {
            "close_approach_date": "2010-03-27",
            "close_approach_date_full": "2010-Mar-27 21:28",
            "epoch_date_close_approach": 1269725280000,
            "relative_velocity": {
                "kilometers_per_second": "13.3884468176",
                "kilometers_per_hour": "48198.4085434874",
                "miles_per_hour": "29948.6166863686"
            },
            "miss_distance": {
                "astronomical": "0.0963805338",
                "lunar": "37.4920276482",
                "kilometers": "14418322.565943006",
                "miles": "8959130.2020892428"
            },
            "orbiting_body": "Mars"
        },
        {
            "close_approach_date": "2017-11-24",
            "close_approach_date_full": "2017-Nov-24 11:14",
            "epoch_date_close_approach": 1511522040000,
            "relative_velocity": {
                "kilometers_per_second": "8.2544097637",
                "kilometers_per_hour": "29715.8751494992",
                "miles_per_hour": "18464.2892005319"
            },
            "miss_distance": {
                "astronomical": "0.0052754122",
                "lunar": "2.0521353458",
                "kilometers": "789190.428492014",
                "miles": "490380.1930332332"
            },
            "orbiting_body": "Moon"
        },
        {
            "close_approach_date": "2017-11-24",
            "close_approach_date_full": "2017-Nov-24 22:00",
            "epoch_date_close_approach": 1511560800000,
            "relative_velocity": {
                "kilometers_per_second": "7.8537756509",
                "kilometers_per_hour": "28273.5923431363",
                "miles_per_hour": "17568.1107534338"
            },
            "miss_distance": {
                "astronomical": "0.0043075599",
                "lunar": "1.6756408011",
                "kilometers": "644401.785937413",
                "miles": "400412.7023977794"
            },
            "orbiting_body": "Earth"
        }
    ],
    "orbital_data": {
        "orbit_id": "1",
        "orbit_determination_date": "2017-11-30 09:42:03",
        "first_observation_date": "2017-11-25",
        "last_observation_date": "2017-11-28",
        "data_arc_in_days": 3,
        "observations_used": 22,
        "orbit_uncertainty": "7",
        "minimum_orbit_intersection": ".0130811",
        "jupiter_tisserand_invariant": "3.174",
        "epoch_osculation": "2459000.5",
        "eccentricity": ".6035123800908215",
        "semi_major_axis": "2.520678153730128",
        "inclination": ".9047723436289864",
        "ascending_node_longitude": "252.7596506876283",
        "orbital_period": "1461.754781245308",
        "perihelion_distance": ".9994176817295207",
        "perihelion_argument": "170.803432216902",
        "aphelion_distance": "4.041938625730735",
        "perihelion_time": "2459543.275484607417",
        "mean_anomaly": "226.3256129101186",
        "mean_motion": ".2462793381071114",
        "equinox": "J2000",
        "orbit_class": {
            "orbit_class_type": "APO",
            "orbit_class_description": "Near-Earth asteroid orbits which cross the Earth’s orbit similar to that of 1862 Apollo",
            "orbit_class_range": "a (semi-major axis) > 1.0 AU; q (perihelion) < 1.017 AU"
        }
    },
    "is_sentry_object": false
}